$$SOE
2460147.500000000, A.D. 2023-Jul-22 00:00:00.0000, 1.251377997416470E+08, -3.582400636020496E+08, -1.439816136387214E+06,
2460154.500000000, A.D. 2023-Jul-29 00:00:00.0000, 1.355714713664693E+08, -3.554239712934593E+08, -9.792663323204219E+05,
2460161.500000000, A.D. 2023-Aug-05 00:00:00.0000, 1.458855604746285E+08, -3.522944303532389E+08, -5.178514726385623E+05,
2460168.500000000, A.D. 2023-Aug-12 00:00:00.0000, 1.560718800425799E+08, -3.488564019910088E+08, -5.598161491717398E+04,
2460175.500000000, A.D. 2023-Aug-19 00:00:00.0000, 1.661224405109675E+08, -3.451149815295521E+08, 4.059385392230898E+05,
2460182.500000000, A.D. 2023-Aug-26 00:00:00.0000, 1.760294464945688E+08, -3.410753921695249E+08, 8.675096300830841E+05,
2460189.500000000, A.D. 2023-Sep-02 00:00:00.0000, 1.857852934519106E+08, -3.367429792758243E+08, 1.328337611611411E+06,
2460196.500000000, A.D. 2023-Sep-09 00:00:00.0000, 1.953825643700046E+08, -3.321232052122045E+08, 1.788033703110978E+06,
2460203.500000000, A.D. 2023-Sep-16 00:00:00.0000, 2.048140266495146E+08, -3.272216447655263E+08, 2.246214302302614E+06,
2460210.500000000, A.D. 2023-Sep-23 00:00:00.0000, 2.140726296233079E+08, -3.220439808550421E+08, 2.702500847357526E+06,
2460217.500000000, A.D. 2023-Sep-30 00:00:00.0000, 2.231515023852802E+08, -3.165959993185509E+08, 3.156519757550165E+06,
2460224.500000000, A.D. 2023-Oct-07 00:00:00.0000, 2.320439495896641E+08, -3.108835833014523E+08, 3.607902624386996E+06,
2460231.500000000, A.D. 2023-Oct-14 00:00:00.0000, 2.407434462724996E+08, -3.049127105431204E+08, 4.056286287649482E+06,
2460238.500000000, A.D. 2023-Oct-21 00:00:00.0000, 2.492436349366460E+08, -2.986894519394830E+08, 4.501312632062897E+06,
2460245.500000000, A.D. 2023-Oct-28 00:00:00.0000, 2.575383234890424E+08, -2.922199691063107E+08, 4.942628421023279E+06,
2460252.500000000, A.D. 2023-Nov-04 00:00:00.0000, 2.656214827916091E+08, -2.855105116993476E+08, 5.379885220135555E+06,
2460259.500000000, A.D. 2023-Nov-11 00:00:00.0000, 2.734872440134864E+08, -2.785674150769017E+08, 5.812739346203461E+06,
2460266.500000000, A.D. 2023-Nov-18 00:00:00.0000, 2.811298960135207E+08, -2.713970983552794E+08, 6.240851817175895E+06,
2460273.500000000, A.D. 2023-Nov-25 00:00:00.0000, 2.885438828345173E+08, -2.640060628212042E+08, 6.663888299056873E+06,
2460280.500000000, A.D. 2023-Dec-02 00:00:00.0000, 2.957238013450244E+08, -2.564008906995319E+08, 7.081519046979353E+06,
2460287.500000000, A.D. 2023-Dec-09 00:00:00.0000, 3.026643991128350E+08, -2.485882443218338E+08, 7.493418828921348E+06,
2460294.500000000, A.D. 2023-Dec-16 00:00:00.0000, 3.093605728043469E+08, -2.405748656691061E+08, 7.899266807006225E+06,
2460301.500000000, A.D. 2023-Dec-23 00:00:00.0000, 3.158073674668888E+08, -2.323675755882533E+08, 8.298746401173860E+06,
2460308.500000000, A.D. 2023-Dec-30 00:00:00.0000, 3.219999753628724E+08, -2.239732716235305E+08, 8.691545344720125E+06,
2460315.500000000, A.D. 2024-Jan-06 00:00:00.0000, 3.279337325890204E+08, -2.153989268145134E+08, 9.077355901723310E+06,
2460322.500000000, A.D. 2024-Jan-13 00:00:00.0000, 3.336041166568412E+08, -2.066515912550461E+08, 9.455874807491958E+06,
2460329.500000000, A.D. 2024-Jan-20 00:00:00.0000, 3.390067462634916E+08, -1.977383933156458E+08, 9.826803071878590E+06,
2460336.500000000, A.D. 2024-Jan-27 00:00:00.0000, 3.441373812313913E+08, -1.886665398662899E+08, 1.018984588512930E+07,
2460343.500000000, A.D. 2024-Feb-03 00:00:00.0000, 3.489919221947359E+08, -1.794433164379851E+08, 1.054471258832186E+07,
2460350.500000000, A.D. 2024-Feb-10 00:00:00.0000, 3.535664103163454E+08, -1.700760876037877E+08, 1.089111665940171E+07,
2460357.500000000, A.D. 2024-Feb-17 00:00:00.0000, 3.578570271797072E+08, -1.605722975607599E+08, 1.122877570302402E+07,
2460364.500000000, A.D. 2024-Feb-24 00:00:00.0000, 3.618600948985913E+08, -1.509394708875811E+08, 1.155741144246519E+07,
2460371.500000000, A.D. 2024-Mar-02 00:00:00.0000, 3.655720764800524E+08, -1.411852135001428E+08, 1.187674970864078E+07,
2460378.500000000, A.D. 2024-Mar-09 00:00:00.0000, 3.689895765852382E+08, -1.313172138576902E+08, 1.218652040861183E+07,
2460385.500000000, A.D. 2024-Mar-16 00:00:00.0000, 3.721093430882732E+08, -1.213432442103704E+08, 1.248645745359846E+07,
2460392.500000000, A.D. 2024-Mar-23 00:00:00.0000, 3.749282693374643E+08, -1.112711607662624E+08, 1.277629874732170E+07,
2460399.500000000, A.D. 2024-Mar-30 00:00:00.0000, 3.774433948888206E+08, -1.011089027953422E+08, 1.305578643934166E+07,
2460406.500000000, A.D. 2024-Apr-06 00:00:00.0000, 3.796519049745873E+08, -9.086449403117053E+07, 1.332466714526917E+07,
2460413.500000000, A.D. 2024-Apr-13 00:00:00.0000, 3.815511322586824E+08, -8.054604552323337E+07, 1.358269187615144E+07,
2460420.500000000, A.D. 2024-Apr-20 00:00:00.0000, 3.831385599282295E+08, -7.016175724903868E+07, 1.382961598281403E+07,
2460427.500000000, A.D. 2024-Apr-27 00:00:00.0000, 3.844118246080160E+08, -5.971991903129999E+07, 1.406519920838093E+07,
2460434.500000000, A.D. 2024-May-04 00:00:00.0000, 3.853687191927472E+08, -4.922891144607067E+07, 1.428920578381074E+07,
2460441.500000000, A.D. 2024-May-11 00:00:00.0000, 3.860071958459541E+08, -3.869720680653810E+07, 1.450140453731177E+07,
2460448.500000000, A.D. 2024-May-18 00:00:00.0000, 3.863253692595772E+08, -2.813337018570123E+07, 1.470156901334274E+07,
2460455.500000000, A.D. 2024-May-25 00:00:00.0000, 3.863215202098629E+08, -1.754606047113717E+07, 1.488947759976436E+07,
2460462.500000000, A.D. 2024-Jun-01 00:00:00.0000, 3.859940994781873E+08, -6.944031495119828E+06, 1.506491365406020E+07,
2460469.500000000, A.D. 2024-Jun-08 00:00:00.0000, 3.853417323893340E+08, 3.663866752115443E+06, 1.522766560478574E+07,
2460476.500000000, A.D. 2024-Jun-15 00:00:00.0000, 3.843632243694526E+08, 1.426868738885594E+07, 1.537752703631850E+07,
2460483.500000000, A.D. 2024-Jun-22 00:00:00.0000, 3.830575665220993E+08, 2.486138758614496E+07, 1.551429694583799E+07,
2460490.500000000, A.D. 2024-Jun-29 00:00:00.0000, 3.814239391110293E+08, 3.543282939198976E+07, 1.563778021993946E+07,
2460497.500000000, A.D. 2024-Jul-06 00:00:00.0000, 3.794617156027161E+08, 4.597377798413879E+07, 1.574778788710870E+07,
2460504.500000000, A.D. 2024-Jul-13 00:00:00.0000, 3.771704692197241E+08, 5.647490019847432E+07, 1.584413719818953E+07,
2460511.500000000, A.D. 2024-Jul-20 00:00:00.0000, 3.745499800225771E+08, 6.692676450833851E+07, 1.592665181148192E+07,
2460518.500000000, A.D. 2024-Jul-27 00:00:00.0000, 3.716002418689957E+08, 7.731984152283987E+07, 1.599516206503554E+07,
2460525.500000000, A.D. 2024-Aug-03 00:00:00.0000, 3.683214695275006E+08, 8.764450465774143E+07, 1.604950528113012E+07,
2460532.500000000, A.D. 2024-Aug-10 00:00:00.0000, 3.647141061139280E+08, 9.789103100471774E+07, 1.608952608791331E+07,
2460539.500000000, A.D. 2024-Aug-17 00:00:00.0000, 3.607788308997058E+08, 1.080496024529186E+08, 1.611507675610741E+07,
2460546.500000000, A.D. 2024-Aug-24 00:00:00.0000, 3.565165675200962E+08, 1.181103070749273E+08, 1.612601754686966E+07,
2460553.500000000, A.D. 2024-Aug-31 00:00:00.0000, 3.519284926975336E+08, 1.280631407519628E+08, 1.612221705564579E+07,
2460560.500000000, A.D. 2024-Sep-07 00:00:00.0000, 3.470160458436360E+08, 1.378980092018077E+08, 1.610355252907216E+07,
2460567.500000000, A.D. 2024-Sep-14 00:00:00.0000, 3.417809396178234E+08, 1.476047314427306E+08, 1.606991022818246E+07,
2460574.500000000, A.D. 2024-Sep-21 00:00:00.0000, 3.362251694018106E+08, 1.571730451494084E+08, 1.602118605792915E+07,
2460581.500000000, A.D. 2024-Sep-28 00:00:00.0000, 3.303510211970664E+08, 1.665926107216008E+08, 1.595728624532420E+07,
2460588.500000000, A.D. 2024-Oct-05 00:00:00.0000, 3.241610816074638E+08, 1.758530141106508E+08, 1.587812772994206E+07,
2460595.500000000, A.D. 2024-Oct-12 00:00:00.0000, 3.176582495280520E+08, 1.849437714278722E+08, 1.578363854288919E+07,
2460602.500000000, A.D. 2024-Oct-19 00:00:00.0000, 3.108457477672304E+08, 1.938543351121677E+08, 1.567375831264180E+07,
2460609.500000000, A.D. 2024-Oct-26 00:00:00.0000, 3.037271345453120E+08, 2.025741009050092E+08, 1.554843883508977E+07,
2460616.500000000, A.D. 2024-Nov-02 00:00:00.0000, 2.963063150966027E+08, 2.110924155350899E+08, 1.540764467158613E+07,
2460623.500000000, A.D. 2024-Nov-09 00:00:00.0000, 2.885875534352564E+08, 2.193985851863559E+08, 1.525135376715088E+07,
2460630.500000000, A.D. 2024-Nov-16 00:00:00.0000, 2.805754842691065E+08, 2.274818848057874E+08, 1.507955808578935E+07,
2460637.500000000, A.D. 2024-Nov-23 00:00:00.0000, 2.722751250624369E+08, 2.353315682601609E+08, 1.489226425402109E+07,
2460644.500000000, A.D. 2024-Nov-30 00:00:00.0000, 2.636918884067710E+08, 2.429368793603671E+08, 1.468949418969524E+07,
2460651.500000000, A.D. 2024-Dec-07 00:00:00.0000, 2.548315950670504E+08, 2.502870642344143E+08, 1.447128571146449E+07,
2460658.500000000, A.D. 2024-Dec-14 00:00:00.0000, 2.457004869546654E+08, 2.573713863271099E+08, 1.423769329057439E+07,
2460665.500000000, A.D. 2024-Dec-21 00:00:00.0000, 2.363052376344780E+08, 2.641791428377180E+08, 1.398878905466057E+07,
2460672.500000000, A.D. 2024-Dec-28 00:00:00.0000, 2.266529622629064E+08, 2.706996796856058E+08, 1.372466361907919E+07,
2460679.500000000, A.D. 2025-Jan-04 00:00:00.0000, 2.167512294737743E+08, 2.769224074250124E+08, 1.344542669833352E+07,
2460686.500000000, A.D. 2025-Jan-11 00:00:00.0000, 2.066080732885207E+08, 2.828368198031867E+08, 1.315120779561624E+07,
2460693.500000000, A.D. 2025-Jan-18 00:00:00.0000, 1.962320040173762E+08, 2.884325140794561E+08, 1.284215697549005E+07,
2460700.500000000, A.D. 2025-Jan-25 00:00:00.0000, 1.856320182719329E+08, 2.936992126696221E+08, 1.251844565540297E+07,
2460707.500000000, A.D. 2025-Feb-01 00:00:00.0000, 1.748176081524593E+08, 2.986267861226586E+08, 1.218026739332937E+07,
2460714.500000000, A.D. 2025-Feb-08 00:00:00.0000, 1.637987695386263E+08, 3.032052774776933E+08, 1.182783866424885E+07,
$$EOE